NORAD_CAT_ID,OBJECT_NAME,OBJECT_TYPE,EPOCH,MEAN_MOTION,ECCENTRICITY,INCLINATION,RA_OF_ASC_NODE,ARG_OF_PERICENTER,MEAN_ANOMALY,BSTAR,MEAN_MOTION_DOT,MEAN_MOTION_DDOT,TLE_LINE0,TLE_LINE1,TLE_LINE2,SEMIMAJOR_AXIS,PERIOD,APOGEE,PERIGEE,DECAYED
55638.0,STARLINK-5507,PAYLOAD,2024-02-16 22:26:37,14.98321022,0.0002913,69.9999,299.856,268.3797,91.7028,-5.3741e-05,-7.34e-06,0.0,0 STARLINK-5507,1 55638U 23021L   24047.93515473 -.00000734  00000-0 -53741-4 0  9999,2 55638  69.9999 299.8560 0002913 268.3797  91.7028 14.98321022 55690,6950.221,96.108,574.11,570.061,0.0
55638.0,STARLINK-5507,PAYLOAD,2024-02-17 09:39:33,14.98326403,0.0002937,69.9998,298.6773,271.008,89.0742,-5.9508e-05,-8.03e-06,0.0,0 STARLINK-5507,1 55638U 23021L   24048.40247321 -.00000803  00000-0 -59508-4 0  9990,2 55638  69.9998 298.6773 0002937 271.0080  89.0742 14.98326403 55763,6950.204,96.107,574.11,570.028,0.0
55638.0,STARLINK-5507,PAYLOAD,2024-02-17 19:16:21,14.98335386,0.0003006,69.9994,297.6669,269.341,90.7405,-0.00013023,-1.647e-05,0.0,0 STARLINK-5507,1 55638U 23021L   24048.80302987 -.00001647  00000-0 -13023-3 0  9992,2 55638  69.9994 297.6669 0003006 269.3410  90.7405 14.98335386 55526,6950.176,96.107,574.13,569.952,0.0
55638.0,STARLINK-5507,PAYLOAD,2024-02-17 22:28:37,14.98333471,0.0002996,69.9996,297.3315,265.4709,94.6108,-8.9349e-05,-1.159e-05,0.0,0 STARLINK-5507,1 55638U 23021L   24048.93654935 -.00001159  00000-0 -89349-4 0  9992,2 55638  69.9996 297.3315 0002996 265.4709  94.6108 14.98333471 55849,6950.182,96.107,574.129,569.965,0.0
55638.0,STARLINK-5507,PAYLOAD,2024-02-18 09:41:33,14.9833729,0.0003113,69.9982,296.1518,271.1885,88.8917,-7.2945e-05,-9.63e-06,0.0,0 STARLINK-5507,1 55638U 23021L   24049.40386429 -.00000963  00000-0 -72945-4 0  9991,2 55638  69.9982 296.1518 0003113 271.1885  88.8917 14.98337290 55911,6950.17,96.107,574.199,569.872,0.0
55638.0,STARLINK-5507,PAYLOAD,2024-02-18 19:18:22,14.98324279,0.0003054,69.9987,295.1415,271.7821,88.2988,0.00010237,1.128e-05,0.0,0 STARLINK-5507,1 55638U 23021L   24049.80442900  .00001128  00000-0  10237-3 0  9999,2 55638  69.9987 295.1415 0003054 271.7821  88.2988 14.98324279 55679,6950.211,96.107,574.198,569.953,0.0
55638.0,STARLINK-5507,PAYLOAD,2024-02-18 22:30:38,14.98325644,0.0002968,69.9996,294.8065,269.3505,90.7314,0.00012362,1.382e-05,0.0,0 STARLINK-5507,1 55638U 23021L   24049.93794804  .00001382  00000-0  12362-3 0  9999,2 55638  69.9996 294.8065 0002968 269.3505  90.7314 14.98325644 55994,6950.206,96.107,574.134,570.009,0.0
55638.0,STARLINK-5507,PAYLOAD,2024-02-19 09:43:35,14.98324826,0.0002895,69.9996,293.6283,269.376,90.7067,4.2615e-05,4.15e-06,0.0,0 STARLINK-5507,1 55638U 23021L   24050.40527183  .00000415  00000-0  42615-4 0  9998,2 55638  69.9996 293.6283 0002895 269.3760  90.7067 14.98324826 56060,6950.209,96.107,574.086,570.062,0.0
55638.0,STARLINK-5507,PAYLOAD,2024-02-19 19:20:24,14.98325115,0.0002963,69.9999,292.6172,269.0038,91.0782,-2.7095e-06,-1.25e-06,0.0,0 STARLINK-5507,1 55638U 23021L   24050.80583352 -.00000125  00000-0 -27095-5 0  9998,2 55638  69.9999 292.6172 0002963 269.0038  91.0782 14.98325115 55823,6950.208,96.107,574.132,570.014,0.0
55638.0,STARLINK-5507,PAYLOAD,2024-02-19 22:32:39,14.98328121,0.0002996,69.9997,292.2806,266.684,93.3976,-9.6231e-06,-2.08e-06,0.0,0 STARLINK-5507,1 55638U 23021L   24050.93935160 -.00000208  00000-0 -96231-5 0  9990,2 55638  69.9997 292.2806 0002996 266.6840  93.3976 14.98328121 56147,6950.199,96.107,574.146,569.981,0.0
55638.0,STARLINK-5507,PAYLOAD,2024-02-20 09:45:36,14.98329272,0.0002646,69.9998,291.1019,268.1456,91.94,2.7037e-05,2.3e-06,0.0,0 STARLINK-5507,1 55638U 23021L   24051.40667085  .00000230  00000-0  27037-4 0  9991,2 55638  69.9998 291.1019 0002646 268.1456  91.9400 14.98329272 56216,6950.195,96.107,573.899,570.221,0.0
55638.0,STARLINK-5507,PAYLOAD,2024-02-20 19:22:24,14.98325037,0.0002908,69.9993,290.0916,268.5308,91.5517,0.00016182,1.838e-05,0.0,0 STARLINK-5507,1 55638U 23021L   24051.80722922  .00001838  00000-0  16182-3 0  9990,2 55638  69.9993 290.0916 0002908 268.5308  91.5517 14.98325037 55978,6950.208,96.107,574.094,570.052,0.0
55638.0,STARLINK-5507,PAYLOAD,2024-02-20 22:34:40,14.98332006,0.0002907,69.9992,289.7549,267.9722,92.1105,4.6316e-05,4.6e-06,0.0,0 STARLINK-5507,1 55638U 23021L   24051.94074712  .00000460  00000-0  46316-4 0  9995,2 55638  69.9992 289.7549 0002907 267.9722  92.1105 14.98332006 56296,6950.187,96.107,574.072,570.031,0.0
55638.0,STARLINK-5507,PAYLOAD,2024-02-21 01:46:56,14.98334742,0.0002909,69.9992,289.4183,267.9445,92.1381,4.8776e-05,4.89e-06,0.0,0 STARLINK-5507,1 55638U 23021L   24052.07426501  .00000489  00000-0  48776-4 0  9990,2 55638  69.9992 289.4183 0002909 267.9445  92.1381 14.98334742 56016,6950.178,96.107,574.065,570.021,0.0
55638.0,STARLINK-5507,PAYLOAD,2024-02-21 19:24:22,14.98370573,0.0002544,69.9993,287.5669,232.9985,127.0942,0.00048145,5.662e-05,0.0,0 STARLINK-5507,1 55638U 23021L   24052.80858881  .00005662  00000-0  48145-3 0  9998,2 55638  69.9993 287.5669 0002544 232.9985 127.0942 14.98370573 56126,6950.067,96.104,573.701,570.164,0.0
55638.0,STARLINK-5507,PAYLOAD,2024-02-21 22:36:38,14.98371909,0.000271,69.9995,287.2302,263.585,96.5,0.00045456,5.341e-05,0.0,0 STARLINK-5507,1 55638U 23021L   24052.94210687  .00005341  00000-0  45456-3 0  9995,2 55638  69.9995 287.2302 0002710 263.5850  96.5000 14.98371909 56449,6950.063,96.104,573.812,570.045,0.0
55638.0,STARLINK-5507,PAYLOAD,2024-02-22 01:48:57,14.98327087,0.0003094,69.9989,286.8936,270.5839,89.4966,-3.9434e-05,-5.63e-06,0.0,0 STARLINK-5507,1 55638U 23021L   24053.07566470 -.00000563  00000-0 -39434-4 0  9997,2 55638  69.9989 286.8936 0003094 270.5839  89.4966 14.98327087 56160,6950.202,96.107,574.217,569.917,0.0
55638.0,STARLINK-5507,PAYLOAD,2024-02-22 08:13:30,14.98322894,0.0003009,69.9989,286.2203,270.0166,90.0648,-9.5721e-05,-1.235e-05,0.0,0 STARLINK-5507,1 55638U 23021L   24053.34270926 -.00001235  00000-0 -95721-4 0  9993,2 55638  69.9989 286.2203 0003009 270.0166  90.0648 14.98322894 56509,6950.215,96.107,574.171,569.989,0.0
55638.0,STARLINK-5507,PAYLOAD,2024-02-22 19:26:27,14.9831759,0.000253,70.0,285.0449,267.6703,92.4166,-0.00021356,-2.639e-05,0.0,0 STARLINK-5507,1 55638U 23021L   24053.81004056 -.00002639  00000-0 -21356-3 0  9995,2 55638  70.0000 285.0449 0002530 267.6703  92.4166 14.98317590 56274,6950.231,96.108,573.855,570.338,0.0
55638.0,STARLINK-5507,PAYLOAD,2024-02-22 22:38:43,14.98312254,0.0002574,70.0,284.7081,254.1655,105.9221,-0.00019275,-2.391e-05,0.0,0 STARLINK-5507,1 55638U 23021L   24053.94356382 -.00002391  00000-0 -19275-3 0  9993,2 55638  70.0000 284.7081 0002574 254.1655 105.9221 14.98312254 56596,6950.248,96.108,573.902,570.324,0.0
55638.0,STARLINK-5507,PAYLOAD,2024-02-23 08:15:32,14.98316082,0.0002711,69.9994,283.6966,273.1328,86.9521,-0.00018453,-2.293e-05,0.0,0 STARLINK-5507,1 55638U 23021L   24054.34412492 -.00002293  00000-0 -18453-3 0  9991,2 55638  69.9994 283.6966 0002711 273.1328  86.9521 14.98316082 56657,6950.236,96.108,573.985,570.217,0.0
55638.0,STARLINK-5507,PAYLOAD,2024-02-23 21:04:36,14.98340279,0.0002771,69.9989,282.3494,268.5429,91.5412,-0.00048429,-5.868e-05,0.0,0 STARLINK-5507,1 55638U 23021L   24054.87820165 -.00005868  00000-0 -48429-3 0  9996,2 55638  69.9989 282.3494 0002771 268.5429  91.5412 14.98340279 56431,6950.161,96.106,573.952,570.1,0.0
55638.0,STARLINK-5507,PAYLOAD,2024-02-23 22:40:44,14.98340692,0.0002779,69.9988,282.1807,269.8317,90.2524,-0.00046402,-5.627e-05,0.0,0 STARLINK-5507,1 55638U 23021L   24054.94496074 -.00005627  00000-0 -46402-3 0  9994,2 55638  69.9988 282.1807 0002779 269.8317  90.2524 14.98340692 56747,6950.16,96.106,573.956,570.093,0.0
55638.0,STARLINK-5507,PAYLOAD,2024-02-24 14:42:05,14.98315861,0.0002945,69.9986,280.4974,270.1338,89.9484,0.00023956,2.765e-05,0.0,0 STARLINK-5507,1 55638U 23021L   24055.61256067  .00002765  00000-0  23956-3 0  9992,2 55638  69.9986 280.4974 0002945 270.1338  89.9484 14.98315861 56845,6950.237,96.108,574.148,570.055,0.0
55638.0,STARLINK-5507,PAYLOAD,2024-02-25 00:18:53,14.98324586,0.0002929,69.9986,279.4875,270.1456,89.9368,0.00025712,2.976e-05,0.0,0 STARLINK-5507,1 55638U 23021L   24056.01311749  .00002976  00000-0  25712-3 0  9992,2 55638  69.9986 279.4875 0002929 270.1456  89.9368 14.98324586 56605,6950.21,96.107,574.11,570.039,0.0
55638.0,STARLINK-5507,PAYLOAD,2024-02-25 14:44:05,14.98334619,0.0002952,69.9983,277.9726,270.8104,89.2716,0.00024095,2.783e-05,0.0,0 STARLINK-5507,1 55638U 23021L   24056.61395205  .00002783  00000-0  24095-3 0  9996,2 55638  69.9983 277.9726 0002952 270.8104  89.2716 14.98334619 56993,6950.179,96.107,574.095,569.992,0.0
55638.0,STARLINK-5507,PAYLOAD,2024-02-25 19:32:29,14.98338245,0.0002934,69.9986,277.4675,270.7528,89.3295,0.0002626,3.042e-05,0.0,0 STARLINK-5507,1 55638U 23021L   24056.81422836  .00003042  00000-0  26260-3 0  9994,2 55638  69.9986 277.4675 0002934 270.7528  89.3295 14.98338245 56726,6950.167,96.106,574.072,569.993,0.0
55638.0,STARLINK-5507,PAYLOAD,2024-02-25 22:44:45,14.98342539,0.0002917,69.9984,277.1309,271.1672,88.9152,0.00025936,3.004e-05,0.0,0 STARLINK-5507,1 55638U 23021L   24056.94774501  .00003004  00000-0  25936-3 0  9994,2 55638  69.9984 277.1309 0002917 271.1672  88.9152 14.98342539 57045,6950.154,96.106,574.046,569.992,0.0
55638.0,STARLINK-5507,PAYLOAD,2024-02-26 14:46:06,14.98337488,0.0002464,70.0018,275.448,271.8997,88.188,9.8245e-06,2.4e-07,0.0,0 STARLINK-5507,1 55638U 23021L   24057.61535253  .00000024  00000-0  98245-5 0  9992,2 55638  70.0018 275.4480 0002464 271.8997  88.1880 14.98337488 57149,6950.17,96.107,573.747,570.322,0.0
55638.0,STARLINK-5507,PAYLOAD,2024-02-26 19:34:30,14.98333212,0.0002743,69.9987,274.9425,276.1761,83.9085,-3.0891e-05,-4.62e-06,0.0,0 STARLINK-5507,1 55638U 23021L   24057.81563535 -.00000462  00000-0 -30891-4 0  9998,2 55638  69.9987 274.9425 0002743 276.1761  83.9085 14.98333212 56871,6950.183,96.107,573.954,570.142,0.0
